[{"OBJECT_NAME":"STARLINK-5959","OBJECT_ID":"2023-064G","EPOCH":"2026-03-09T22:33:03.362400","MEAN_MOTION":14.98327857,"ECCENTRICITY":0.00032927,"INCLINATION":70.0003,"RA_OF_ASC_NODE":143.8225,"ARG_OF_PERICENTER":267.2953,"MEAN_ANOMALY":92.7829,"EPHEMERIS_TYPE":0,"CLASSIFICATION_TYPE":"U","NORAD_CAT_ID":56454,"ELEMENT_SET_NO":999,"REV_AT_EPOCH":15528,"BSTAR":-7.171631e-6,"MEAN_MOTION_DOT":-1.79e-6,"MEAN_MOTION_DDOT":0},{"OBJECT_NAME":"ICEYE-X43","OBJECT_ID":"2024-149BZ","EPOCH":"2026-03-09T22:37:06.906720","MEAN_MOTION":14.99337202,"ECCENTRICITY":0.00024583,"INCLINATION":97.6823,"RA_OF_ASC_NODE":147.2527,"ARG_OF_PERICENTER":59.9226,"MEAN_ANOMALY":300.2241,"EPHEMERIS_TYPE":0,"CLASSIFICATION_TYPE":"U","NORAD_CAT_ID":60539,"ELEMENT_SET_NO":999,"REV_AT_EPOCH":8524,"BSTAR":0.00036668005,"MEAN_MOTION_DOT":4.424e-5,"MEAN_MOTION_DDOT":0}]
